{
    "CCSDS_OMM_VERS": "3.0",
    "COMMENT": "GENERATED VIA SPACE-TRACK.ORG API",
    "CREATION_DATE": "2025-05-22T17:14:14",
    "ORIGINATOR": "18 SPCS",
    "OBJECT_NAME": "GALILEO 14 (26B)",
    "OBJECT_ID": "2016-030A",
    "CENTER_NAME": "EARTH",
    "REF_FRAME": "TEME",
    "TIME_SYSTEM": "UTC",
    "MEAN_ELEMENT_THEORY": "SGP4",
    "EPOCH": "2025-05-22T03:08:34.490400",
    "MEAN_MOTION": "1.70474035",
    "ECCENTRICITY": "0.00020880",
    "INCLINATION": "55.2240",
    "RA_OF_ASC_NODE": "232.4501",
    "ARG_OF_PERICENTER": "338.4752",
    "MEAN_ANOMALY": "21.5552",
    "EPHEMERIS_TYPE": "0",
    "CLASSIFICATION_TYPE": "U",
    "NORAD_CAT_ID": "41549",
    "ELEMENT_SET_NO": "999",
    "REV_AT_EPOCH": "5600",
    "BSTAR": "0.00000000000000",
    "MEAN_MOTION_DOT": "0.00000003",
    "MEAN_MOTION_DDOT": "0.0000000000000",
    "SEMIMAJOR_AXIS": "29600.316",
    "PERIOD": "844.703",
    "APOAPSIS": "23228.362",
    "PERIAPSIS": "23216.000",
    "OBJECT_TYPE": "PAYLOAD",
    "RCS_SIZE": "LARGE",
    "COUNTRY_CODE": "ESA",
    "LAUNCH_DATE": "2016-05-24",
    "SITE": "FRGUI",
    "DECAY_DATE": null,
    "FILE": "4736220",
    "GP_ID": "288143459",
    "TLE_LINE0": "0 GALILEO 14 (26B)",
    "TLE_LINE1": "1 41549U 16030A   25142.13095475  .00000003  00000-0  00000-0 0  9994",
    "TLE_LINE2": "2 41549  55.2240 232.4501 0002088 338.4752  21.5552  1.70474035 56002"
}